{"type": "FeatureCollection", "features": [ {"type": "Feature", "properties": {"norad_id": 66595, "name": "STARLINK-35711", "group": "last-30-days", "lat": -10.611857330508473, "lon": -62.54603154653257, "alt_km": 444.92383946356404, "timestamp": "2025-12-27T16:33:28.970816+00:00", "meta": {"OBJECT_NAME": "STARLINK-35711", "OBJECT_ID": "2025-270H", "EPOCH": "2025-12-27T07:56:02.130144", "MEAN_MOTION": 15.40753752, "ECCENTRICITY": 0.0001901, "INCLINATION": 42.9986, "RA_OF_ASC_NODE": 107.9259, "ARG_OF_PERICENTER": 289.0198, "MEAN_ANOMALY": 71.0453, "EPHEMERIS_TYPE": 0, "CLASSIFICATION_TYPE": "U", "NORAD_CAT_ID": 66595, "ELEMENT_SET_NO": 999, "REV_AT_EPOCH": 671, "BSTAR": 0.0014572, "MEAN_MOTION_DOT": 0.00061168, "MEAN_MOTION_DDOT": 0}, "tle": {"line1": "1 66595U 25270H   25361.33058021  .00061168  00000+0  14572-2 0  9998", "line2": "2 66595  42.9986 107.9259 0001901 289.0198  71.0453 15.40753752  6715"}}, "geometry": {"type": "Point", "coordinates": [-62.54603154653257, -10.611857330508473]}}, {"type": "Feature", "properties": {"norad_id": 66596, "name": "STARLINK-35811", "group": "last-30-days", "lat": -41.64349446634519, "lon": -0.8189922248199122, "alt_km": 445.976546356379, "timestamp": "2025-12-27T16:33:28.970827+00:00", "meta": {"OBJECT_NAME": "STARLINK-35811", "OBJECT_ID": "2025-270J", "EPOCH": "2025-12-27T07:40:06.026880", "MEAN_MOTION": 15.40747359, "ECCENTRICITY": 0.0001596, "INCLINATION": 42.9991, "RA_OF_ASC_NODE": 108.7131, "ARG_OF_PERICENTER": 248.0542, "MEAN_ANOMALY": 112.0145, "EPHEMERIS_TYPE": 0, "CLASSIFICATION_TYPE": "U", "NORAD_CAT_ID": 66596, "ELEMENT_SET_NO": 999, "REV_AT_EPOCH": 670, "BSTAR": 0.0018151, "MEAN_MOTION_DOT": 0.00076402, "MEAN_MOTION_DDOT": 0}, "tle": {"line1": "1 66596U 25270J   25361.31951420  .00076402  00000+0  18151-2 0  9996", "line2": "2 66596  42.9991 108.7131 0001596 248.0542 112.0145 15.40747359  6707"}}, "geometry": {"type": "Point", "coordinates": [-0.8189922248199122, -41.64349446634519]}}, {"type": "Feature", "properties": {"norad_id": 66597, "name": "STARLINK-35820", "group": "last-30-days", "lat": -33.001730936399056, "lon": 62.27716701927205, "alt_km": 445.58633462700254, "timestamp": "2025-12-27T16:33:28.970837+00:00", "meta": {"OBJECT_NAME": "STARLINK-35820", "OBJECT_ID": "2025-270K", "EPOCH": "2025-12-26T17:27:01.514304", "MEAN_MOTION": 15.40727442, "ECCENTRICITY": 0.00015706, "INCLINATION": 43.0019, "RA_OF_ASC_NODE": 112.0061, "ARG_OF_PERICENTER": 267.3667, "MEAN_ANOMALY": 92.701, "EPHEMERIS_TYPE": 0, "CLASSIFICATION_TYPE": "U", "NORAD_CAT_ID": 66597, "ELEMENT_SET_NO": 999, "REV_AT_EPOCH": 661, "BSTAR": 0.0015888312, "MEAN_MOTION_DOT": 0.00066709, "MEAN_MOTION_DDOT": 0}, "tle": {"line1": "1 66597U 25270K   25360.72710086  .00066709  00000+0  15888-2 0  9995", "line2": "2 66597  43.0019 112.0061 0001570 267.3667  92.7010 15.40727442  6611"}}, "geometry": {"type": "Point", "coordinates": [62.27716701927205, -33.001730936399056]}}, {"type": "Feature", "properties": {"norad_id": 66598, "name": "STARLINK-35981", "group": "last-30-days", "lat": 23.029296937871635, "lon": 133.3785081271017, "alt_km": 439.74878771205385, "timestamp": "2025-12-27T16:33:28.970847+00:00", "meta": {"OBJECT_NAME": "STARLINK-35981", "OBJECT_ID": "2025-270L", "EPOCH": "2025-12-25T14:37:26.403168", "MEAN_MOTION": 15.4075353, "ECCENTRICITY": 0.0001255, "INCLINATION": 42.9985, "RA_OF_ASC_NODE": 118.2329, "ARG_OF_PERICENTER": 277.5792, "MEAN_ANOMALY": 82.4921, "EPHEMERIS_TYPE": 0, "CLASSIFICATION_TYPE": "U", "NORAD_CAT_ID": 66598, "ELEMENT_SET_NO": 999, "REV_AT_EPOCH": 618, "BSTAR": 0.0013375, "MEAN_MOTION_DOT": 0.00056078, "MEAN_MOTION_DDOT": 0}, "tle": {"line1": "1 66598U 25270L   25359.60933337  .00056078  00000+0  13375-2 0  9994", "line2": "2 66598  42.9985 118.2329 0001255 277.5792  82.4921 15.40753530  6185"}}, "geometry": {"type": "Point", "coordinates": [133.3785081271017, 23.029296937871635]}}, {"type": "Feature", "properties": {"norad_id": 66599, "name": "STARLINK-35930", "group": "last-30-days", "lat": 6.2882174293763775, "lon": -80.87777619957293, "alt_km": 443.1702475996717, "timestamp": "2025-12-27T16:33:28.970857+00:00", "meta": {"OBJECT_NAME": "STARLINK-35930", "OBJECT_ID": "2025-270M", "EPOCH": "2025-12-27T08:02:29.457024", "MEAN_MOTION": 15.40736802, "ECCENTRICITY": 0.0001624, "INCLINATION": 42.998, "RA_OF_ASC_NODE": 107.9595, "ARG_OF_PERICENTER": 280.6262, "MEAN_ANOMALY": 79.4412, "EPHEMERIS_TYPE": 0, "CLASSIFICATION_TYPE": "U", "NORAD_CAT_ID": 66599, "ELEMENT_SET_NO": 999, "REV_AT_EPOCH": 660, "BSTAR": 0.0011193, "MEAN_MOTION_DOT": 0.00046797, "MEAN_MOTION_DDOT": 0}, "tle": {"line1": "1 66599U 25270M   25361.33506316  .00046797  00000+0  11193-2 0  9994", "line2": "2 66599  42.9980 107.9595 0001624 280.6262  79.4412 15.40736802  6609"}}, "geometry": {"type": "Point", "coordinates": [-80.87777619957293, 6.2882174293763775]}}, {"type": "Feature", "properties": {"norad_id": 66600, "name": "STARLINK-35980", "group": "last-30-days", "lat": 42.651993333166956, "lon": -172.50248384648998, "alt_km": 436.86601380885986, "timestamp": "2025-12-27T16:33:28.970870+00:00", "meta": {"OBJECT_NAME": "STARLINK-35980", "OBJECT_ID": "2025-270N", "EPOCH": "2025-12-27T06:51:43.259040", "MEAN_MOTION": 15.40752668, "ECCENTRICITY": 7.91e-05, "INCLINATION": 42.9975, "RA_OF_ASC_NODE": 108.4563, "ARG_OF_PERICENTER": 1.7739, "MEAN_ANOMALY": 358.312, "EPHEMERIS_TYPE": 0, "CLASSIFICATION_TYPE": "U", "NORAD_CAT_ID": 66600, "ELEMENT_SET_NO": 999, "REV_AT_EPOCH": 649, "BSTAR": 0.001494, "MEAN_MOTION_DOT": 0.00062729, "MEAN_MOTION_DDOT": 0}, "tle": {"line1": "1 66600U 25270N   25361.28591735  .00062729  00000+0  14940-2 0  9996", "line2": "2 66600  42.9975 108.4563 0000791   1.7739 358.3120 15.40752668  6492"}}, "geometry": {"type": "Point", "coordinates": [-172.50248384648998, 42.651993333166956]}}, {"type": "Feature", "properties": {"norad_id": 66601, "name": "STARLINK-35978", "group": "last-30-days", "lat": -10.816493222038089, "lon": 94.53477039937077, "alt_km": 443.8434559340849, "timestamp": "2025-12-27T16:33:28.970880+00:00", "meta": {"OBJECT_NAME": "STARLINK-35978", "OBJECT_ID": "2025-270P", "EPOCH": "2025-12-27T08:50:52.905696", "MEAN_MOTION": 15.40750696, "ECCENTRICITY": 0.0002726, "INCLINATION": 43.0001, "RA_OF_ASC_NODE": 108.2179, "ARG_OF_PERICENTER": 284.1996, "MEAN_ANOMALY": 75.8557, "EPHEMERIS_TYPE": 0, "CLASSIFICATION_TYPE": "U", "NORAD_CAT_ID": 66601, "ELEMENT_SET_NO": 999, "REV_AT_EPOCH": 644, "BSTAR": 0.0015521, "MEAN_MOTION_DOT": 0.000652, "MEAN_MOTION_DDOT": 0}, "tle": {"line1": "1 66601U 25270P   25361.36866789  .00065200  00000+0  15521-2 0  9993", "line2": "2 66601  43.0001 108.2179 0002726 284.1996  75.8557 15.40750696  6447"}}, "geometry": {"type": "Point", "coordinates": [94.53477039937077, -10.816493222038089]}}, {"type": "Feature", "properties": {"norad_id": 66602, "name": "STARLINK-36050", "group": "last-30-days", "lat": -42.978897089872945, "lon": 16.268876229773547, "alt_km": 446.60957330476504, "timestamp": "2025-12-27T16:33:28.970890+00:00", "meta": {"OBJECT_NAME": "STARLINK-36050", "OBJECT_ID": "2025-270Q", "EPOCH": "2025-12-26T16:03:21.386592", "MEAN_MOTION": 15.40750684, "ECCENTRICITY": 4.193e-05, "INCLINATION": 42.9995, "RA_OF_ASC_NODE": 112.4296, "ARG_OF_PERICENTER": 251.3253, "MEAN_ANOMALY": 108.7558, "EPHEMERIS_TYPE": 0, "CLASSIFICATION_TYPE": "U", "NORAD_CAT_ID": 66602, "ELEMENT_SET_NO": 999, "REV_AT_EPOCH": 639, "BSTAR": 0.0015286524, "MEAN_MOTION_DOT": 0.00064199, "MEAN_MOTION_DDOT": 0}, "tle": {"line1": "1 66602U 25270Q   25360.66899753  .00064199  00000+0  15287-2 0  9998", "line2": "2 66602  42.9995 112.4296 0000419 251.3253 108.7558 15.40750684  6392"}}, "geometry": {"type": "Point", "coordinates": [16.268876229773547, -42.978897089872945]}}, {"type": "Feature", "properties": {"norad_id": 66603, "name": "STARLINK-36048", "group": "last-30-days", "lat": 14.588617559344051, "lon": 122.49275677738858, "alt_km": 443.1577073338931, "timestamp": "2025-12-27T16:33:28.970902+00:00", "meta": {"OBJECT_NAME": "STARLINK-36048", "OBJECT_ID": "2025-270R", "EPOCH": "2025-12-26T17:07:39.283104", "MEAN_MOTION": 15.40743551, "ECCENTRICITY": 0.00047753, "INCLINATION": 42.9999, "RA_OF_ASC_NODE": 111.9022, "ARG_OF_PERICENTER": 249.7133, "MEAN_ANOMALY": 110.3211, "EPHEMERIS_TYPE": 0, "CLASSIFICATION_TYPE": "U", "NORAD_CAT_ID": 66603, "ELEMENT_SET_NO": 999, "REV_AT_EPOCH": 640, "BSTAR": 0.0013488776, "MEAN_MOTION_DOT": 0.0005656, "MEAN_MOTION_DDOT": 0}, "tle": {"line1": "1 66603U 25270R   25360.71364911  .00056560  00000+0  13489-2 0  9993", "line2": "2 66603  42.9999 111.9022 0004775 249.7133 110.3211 15.40743551  6407"}}, "geometry": {"type": "Point", "coordinates": [122.49275677738858, 14.588617559344051]}}, {"type": "Feature", "properties": {"norad_id": 66604, "name": "STARLINK-35977", "group": "last-30-days", "lat": 29.487016442727843, "lon": 143.57667851317385, "alt_km": 440.052873249655, "timestamp": "2025-12-27T16:33:28.970913+00:00", "meta": {"OBJECT_NAME": "STARLINK-35977", "OBJECT_ID": "2025-270S", "EPOCH": "2025-12-27T08:34:44.993280", "MEAN_MOTION": 15.40720018, "ECCENTRICITY": 0.0001683, "INCLINATION": 42.9989, "RA_OF_ASC_NODE": 108.131, "ARG_OF_PERICENTER": 264.0626, "MEAN_ANOMALY": 96.0038, "EPHEMERIS_TYPE": 0, "CLASSIFICATION_TYPE": "U", "NORAD_CAT_ID": 66604, "ELEMENT_SET_NO": 999, "REV_AT_EPOCH": 660, "BSTAR": 0.0014742, "MEAN_MOTION_DOT": 0.00061819, "MEAN_MOTION_DDOT": 0}, "tle": {"line1": "1 66604U 25270S   25361.35746520  .00061819  00000+0  14742-2 0  9991", "line2": "2 66604  42.9989 108.1310 0001683 264.0626  96.0038 15.40720018  6609"}}, "geometry": {"type": "Point", "coordinates": [143.57667851317385, 29.487016442727843]}}]}